C/2017 U2 (Fuls),e,95.3964,149.7062,147.7847,5917,0.0000022,0.99886688,0.0000,08/28.3207/2017,2000,g  9.0,4.0
# From MPEC 2020-R04
P/2017 U3 (PANSTARRS),e,15.9144,165.1067,297.0148,4.931385,0.0900017,0.09901361,46.8383,09/19.0/2020,2000,g 11.0,4.0
# From MPEC 2020-R04
C/2017 U4 (PANSTARRS),h,09/23.8187/2018,158.2192,245.9473,159.0564,1.003003,7.721984,2000,7.0,4.0
# From MPEC 2020-R04
C/2017 U5 (PANSTARRS),e,18.9706,163.0851,262.0497,16.87518,0.0142178,0.74387970,14.2968,09/19.0/2020,2000,g 12.0,4.0
# From MPEC 2020-R04
C/2017 U7 (PANSTARRS),h,09/13.9808/2019,142.5983,276.2446,326.2831,1.001774,6.421598,2000,8.3,2.0
# From MPC114600
C/2017 W2 (Leonard),e,98.1991,312.8401,169.0725,13.67293,0.0194945,0.71082625,20.5188,09/19.0/2020,2000,g 11.0,4.0
# From MPEC 2020-R04
P/2017 W3 (Gibbs),e,18.1738,210.3476,327.6922,7.843992,0.0448640,0.50811368,41.8400,09/19.0/2020,2000,g 10.5,4.0
# From MPC115883
C/2017 X1 (PANSTARRS),e,31.3035,251.1298,283.2865,31.40624,0.0055999,0.85134929,4.6286,09/19.0/2020,2000,g 10.0,4.0
# From MPEC 2020-R04
C/2017 Y1 (PANSTARRS),e,55.2661,307.5305,134.3344,1904,0.0000119,0.99804979,0.0000,08/31.1361/2017,2000,g 11.5,4.0
# From MPEC 2020-R04
C/2017 Y2 (PANSTARRS),h,11/04.5787/2020,128.4200,65.9879,147.8634,1.000992,4.632063,2000,15.0,4.0
# From MPEC 2020-R04
P/2017 Y3 (Leonard),e,27.5642,153.8531,67.5911,9.851889,0.0318731,0.87026616,30.3153,09/19.0/2020,2000,g 16.5,4.0
# From MPC114601
C/2018 A1 (PANSTARRS),e,53.6010,336.6449,96.2912,25.11010,0.0078331,0.90378178,8.3395,09/19.0/2020,2000,g 12.5,4.0
# From MPEC 2020-R04
C/2018 A3 (ATLAS),e,139.5477,194.2938,86.3999,480.7170,0.0000935,0.99318575,0.0000,01/12.6853/2019,2000,g  8.5,4.0
# From MPC114601
C/2018 A4 (PANSTARRS),e,3.1482,97.6330,356.0601,12.21111,0.0230978,0.80338951,19.7368,09/19.0/2020,2000,g 14.0,4.0
# From MPC109147
P/2018 A5 (PANSTARRS),e,23.5790,87.8276,359.5936,5.636817,0.0736467,0.52223563,80.4122,09/19.0/2020,2000,g 15.0,4.0
# From MPEC 2020-R04
C/2018 A6 (Gibbs),e,76.9655,340.3802,264.5561,15.33711,0.0164092,0.80318932,7.1001,09/19.0/2020,2000,g  9.0,4.0
# From MPC118841
C/2018 B1 (Lemmon),h,03/29.6643/2018,162.4200,133.1909,68.3085,1.001311,5.115400,2000,9.0,4.0
# From MPC114601
P/2018 C1 (Lemmon-Read),e,5.1271,270.3910,235.6187,5.652806,0.0733344,0.53398516,68.5821,09/19.0/2020,2000,g 13.5,4.0
# From MPEC 2020-R04
C/2018 C2 (Lemmon),h,06/01.8558/2018,34.4588,91.1423,134.1151,1.000884,1.957606,2000,13.0,4.0
# From MPEC 2020-R04
C/2018 DO4 (Lemmon),e,160.4742,251.1326,175.9665,25.75058,0.0075426,0.90655849,2.9994,09/19.0/2020,2000,g 11.0,4.0
# From MPC114602
C/2018 E1 (ATLAS),e,72.5106,146.8588,299.4168,53.99515,0.0024841,0.94993687,2.2002,09/19.0/2020,2000,g 10.5,4.0
# From MPC114602
C/2018 E2 (Barros),e,97.7199,67.1984,277.4743,3909,0.0000040,0.99899709,0.0000,12/23.9818/2017,2000,g 10.5,4.0
# From MPC114602
C/2018 EN4 (NEOWISE),e,81.6191,136.1473,35.0083,18.25746,0.0126341,0.92060184,10.5466,09/19.0/2020,2000,g 15.0,4.0
# From MPC114602
C/2018 EF9 (Lemmon),e,84.6493,172.5700,72.6206,571.8034,0.0000721,0.99727643,0.0000,05/22.9269/2018,2000,g 18.0,2.0
# From MPC115883
C/2018 F1 (Grauer),e,46.0756,177.2763,71.6384,292.4099,0.0001971,0.98976118,0.0000,12/13.9084/2018,2000,g 11.5,4.0
# From MPC110084
C/2018 F3 (Johnson),p,08/15.2314/2017,105.5348,293.0113,2.483172,173.0311,2000,13.0,4.0
# From MPEC 2020-R04
C/2018 F4 (PANSTARRS),h,12/04.1382/2019,78.0962,26.5117,263.2226,1.001477,3.440172,2000,11.9,2.0
# From MPC114602
P/2018 H2 (PANSTARRS),e,7.3880,68.4205,120.0005,4.394866,0.1069758,0.53990164,103.7948,09/19.0/2020,2000,g 16.6,2.0
# From MPC114602
C/2018 K1 (Weiland),e,164.1960,260.0279,325.0460,29.91547,0.0060237,0.93711868,5.3986,09/19.0/2020,2000,g 14.9,4.0
# From MPC118094
C/2018 KJ3 (Lemmon),e,136.7091,91.5969,217.6507,789.1855,0.0000445,0.99540144,0.0000,09/09.6264/2019,2000,g 12.2,2.0
# From MPC114602
P/2018 L1 (PANSTARRS),e,10.5937,268.6293,17.9656,3.650160,0.1413306,0.48296578,95.5922,09/19.0/2020,2000,g 15.0,4.0
# From MPC118841
C/2018 L2 (ATLAS),e,67.4009,243.0235,56.2653,257.3508,0.0002387,0.99334577,0.0000,12/02.6698/2018,2000,g 10.0,4.0
# From MPC114603
P/2018 L4 (PANSTARRS),e,26.6240,145.1614,140.5394,4.939539,0.0897789,0.66025479,70.0360,09/19.0/2020,2000,g 17.5,4.0
# From MPC119996
P/2018 L5 (Leonard),e,2.2084,219.1374,93.7724,3.627463,0.1426591,0.36479942,123.8295,09/19.0/2020,2000,g 14.5,4.0
# From MPC117070
C/2018 M1 (Catalina),e,37.2840,339.4228,14.1545,21.33263,0.0100032,0.93894110,8.0204,09/19.0/2020,2000,g 15.5,4.0
# From MPC112393
C/2018 N1 (NEOWISE),e,159.4453,292.4421,354.6046,342.7750,0.0001553,0.99618047,0.0000,08/01.9151/2018,2000,g 15.5,4.0
# From MPEC 2020-R04
C/2018 N2 (ASASSN),h,11/10.9650/2019,77.5280,25.2507,24.3997,1.000109,3.124699,2000,6.0,4.0
# From MPC114603
C/2018 O1 (ATLAS),e,154.0411,87.6347,162.5573,27.85978,0.0067025,0.94400894,5.0232,09/19.0/2020,2000,g 17.0,4.0
# From MPC114603
P/2018 P3 (PANSTARRS),e,8.9085,59.1919,305.8672,3.006508,0.1890648,0.41633146,134.3035,09/19.0/2020,2000,g 14.5,4.0
# From MPC114603
P/2018 P4 (PANSTARRS),e,23.1066,353.0823,8.1895,6.669560,0.0572214,0.45027630,38.9813,09/19.0/2020,2000,g 12.0,4.0
# From MPC118094
C/2018 P5 (PANSTARRS),e,7.2540,216.2442,131.6983,12.78830,0.0215519,0.64210938,12.2884,09/19.0/2020,2000,g 11.0,4.0
# From MPC118841
C/2018 R3 (Lemmon),e,69.7256,324.6343,112.8493,1737,0.0000136,0.99925719,0.0000,06/07.2055/2019,2000,g  9.5,4.0
# From MPC112393
C/2018 R4 (Fuls),e,11.6838,298.4347,345.2581,325.8853,0.0001675,0.99474482,0.0000,03/03.6808/2018,2000,g 14.0,4.0
# From MPC114603
C/2018 R5 (Lemmon),e,103.7485,171.1335,178.0387,22.78819,0.0090602,0.84104004,5.5992,09/19.0/2020,2000,g 11.5,4.0
# From MPEC 2020-R04
C/2018 U1 (Lemmon),h,11/02.7989/2021,108.3012,75.4772,180.4209,1.000858,4.993835,2000,5.0,4.0
# From MPC114604
C/2018 V1 (Machholz-Fujikawa-Iwamoto),h,12/03.3975/2018,144.0536,128.8783,88.8342,1.000377,0.385852,2000,12.0,4.0
# From MPC115884
C/2018 V2 (ATLAS),e,159.1587,357.0178,318.9433,25.32920,0.0077316,0.90213558,5.1207,09/19.0/2020,2000,g 15.0,4.0
# From MPC114604
P/2018 VN2 (Leonard),e,18.2476,226.5254,138.7302,4.064845,0.1202647,0.47833622,100.5989,09/19.0/2020,2000,g 15.0,4.0
# From MPC117070
A/2018 V3,e,164.9780,308.6568,3.5048,120.9809,0.0007407,0.98892543,0.0000,09/08.6777/2019,2000,g 15.7,2.0
# From MPC114604
C/2018 V4 (Africano),e,69.0031,78.3730,359.9564,207.8741,0.0003289,0.98461638,0.0000,03/01.4723/2019,2000,g 12.5,4.0
# From MPC114604
P/2018 V5 (Trujillo-Sheppard),e,10.5838,171.2928,260.7163,8.954516,0.0367825,0.47452746,26.3762,09/19.0/2020,2000,g 12.5,4.0
# From MPC115884
C/2018 W1 (Catalina),e,83.2589,233.5915,251.2537,21.74372,0.0097208,0.93742667,4.8236,09/19.0/2020,2000,g 15.7,2.0
# From MPC119996
C/2018 W2 (Africano),h,09/05.6927/2019,116.6169,181.8538,157.9753,1.000524,1.454834,2000,9.5,4.0
# From MPC119996
C/2018 X2 (Fitzsimmons),e,23.0694,340.8278,162.0600,149.4448,0.0005395,0.98577156,0.0000,07/08.4943/2019,2000,g 12.0,4.0
# From MPC114604
C/2018 X3 (PANSTARRS),e,43.3696,78.9150,359.7718,12.38431,0.0226150,0.78220338,14.2114,09/19.0/2020,2000,g 14.5,4.0
# From MPC118842
C/2018 Y1 (Iwamoto),e,160.4008,147.5074,358.0367,142.5829,0.0005789,0.99098288,0.0000,02/07.0356/2019,2000,g 11.5,4.0
# From MPC114605
P/2018 Y2 (Africano),e,11.6828,297.2673,162.3905,7.464818,0.0483254,0.47867639,30.2556,09/19.0/2020,2000,g 11.5,4.0
# From MPC114605
P/2019 A1 (PANSTARRS),e,13.7442,312.3028,150.8089,5.124351,0.0849661,0.56839549,60.2586,09/19.0/2020,2000,g 16.0,4.0
# From MPC114605
P/2019 A2 (ATLAS),e,14.8603,139.4670,324.1070,5.724693,0.0719575,0.38138226,48.0847,09/19.0/2020,2000,g 10.5,4.0
# From MPC114605
P/2019 A3 (PANSTARRS),e,15.3658,31.3085,325.4817,3.147137,0.1765349,0.26541154,137.5103,09/19.0/2020,2000,g 16.0,4.0
# From MPC114605
P/2019 A4 (PANSTARRS),e,13.3209,119.2993,341.7032,2.613512,0.2332745,0.08902301,152.6886,09/19.0/2020,2000,g 15.0,4.0
# From MPC118842
C/2019 A5 (PANSTARRS),e,67.5553,146.6243,355.9963,21.60380,0.0098154,0.70729929,4.5946,09/19.0/2020,2000,g  9.5,4.0
# From MPC114605
P/2019 A6 (Lemmon-PANSTARRS),e,33.2296,280.2721,156.2298,5.364392,0.0793274,0.63892536,59.6429,09/19.0/2020,2000,g 16.0,4.0
# From MPC114605
P/2019 A7 (PANSTARRS),e,17.7744,280.5237,119.2898,3.185876,0.1733248,0.16104724,170.8575,09/19.0/2020,2000,g 13.5,4.0
# From MPC115884
P/2019 A8 (PANSTARRS),e,3.0257,127.5884,22.1644,3.364275,0.1597227,0.44663187,118.3138,09/19.0/2020,2000,g 16.0,4.0
# From MPC118842
C/2019 A9 (PANSTARRS),e,84.2559,278.3830,237.9548,40.01613,0.0038936,0.96426489,1.6367,09/19.0/2020,2000,g 15.0,4.0
# From MPC114606
C/2019 B1 (Africano),e,123.3634,290.4362,174.8533,148.0308,0.0005472,0.98921392,0.0000,03/19.8350/2019,2000,g 16.0,4.0
# From MPC115885
P/2019 B2 (Groeller),e,16.8277,176.3829,358.9981,3.859069,0.1300110,0.37322407,60.8823,09/19.0/2020,2000,g 14.5,4.0
# From MPC115885
C/2019 B3 (PANSTARRS),h,01/19.8448/2021,66.5380,358.4260,263.8944,1.002681,6.823679,2000,5.5,4.0
# From MPEC 2020-AA5
C/2019 C1,e,36.0211,212.3914,319.1936,782.2123,0.0000451,0.99158645,0.0000,05/05.7045/2020,2000,g 10.0,4.0
# From MPC118842
C/2019 D1 (Flewelling),e,34.0878,231.7189,70.5085,140.6793,0.0005907,0.98878065,0.0000,05/11.8770/2019,2000,g 13.0,4.0
# From MPC119997
C/2019 E3 (ATLAS),h,11/12.2012/2023,84.2883,347.2354,280.6012,1.004380,10.315345,2000,2.5,4.0
# From MPEC 2020-R04
C/2019 F1 (ATLAS-Africano),h,06/22.7839/2021,54.1758,38.7263,251.1121,1.003491,3.595943,2000,5.5,4.0
# From MPC119997
C/2019 F2 (ATLAS),e,19.1890,175.7926,11.1124,16.67332,0.0144767,0.86597932,5.4417,09/19.0/2020,2000,g 12.0,4.0
# From MPEC 2020-R04
A/2019 G2,e,159.2093,208.1501,82.6436,697.1092,0.0000535,0.99671345,0.0000,12/10.0273/2019,2000,g 16.5,2.0
# From MPC118094
A/2019 G4,h,09/15.9469/2018,138.3860,130.4643,287.8843,1.001248,5.858690,2000,13.0,2.0
# From MPC114607
P/2019 GG21 (PANSTARRS),e,6.0837,340.5873,208.4372,7.470202,0.0482731,0.47298798,24.0130,09/19.0/2020,2000,g 12.0,4.0
# From MPC115885
